[{"OBJECT_NAME":"STARLINK-3579","OBJECT_ID":"2022-022AT","EPOCH":"2026-03-09T22:27:05.868576","MEAN_MOTION":15.0884886,"ECCENTRICITY":0.00014543,"INCLINATION":53.2192,"RA_OF_ASC_NODE":358.0164,"ARG_OF_PERICENTER":85.7274,"MEAN_ANOMALY":274.3885,"EPHEMERIS_TYPE":0,"CLASSIFICATION_TYPE":"U","NORAD_CAT_ID":51893,"ELEMENT_SET_NO":999,"REV_AT_EPOCH":22334,"BSTAR":-0.0001560884,"MEAN_MOTION_DOT":-2.772e-5,"MEAN_MOTION_DDOT":0},{"OBJECT_NAME":"CZ-6A DEB","OBJECT_ID":"2022-151KB","EPOCH":"2026-03-09T19:20:41.637408","MEAN_MOTION":14.94061736,"ECCENTRICITY":0.0071589,"INCLINATION":98.7004,"RA_OF_ASC_NODE":166.2159,"ARG_OF_PERICENTER":166.3306,"MEAN_ANOMALY":193.9872,"EPHEMERIS_TYPE":0,"CLASSIFICATION_TYPE":"U","NORAD_CAT_ID":54523,"ELEMENT_SET_NO":999,"REV_AT_EPOCH":17710,"BSTAR":0.0044467837,"MEAN_MOTION_DOT":0.00050189,"MEAN_MOTION_DDOT":0}]
